[{"OBJECT_NAME":"VSP RF B1","OBJECT_ID":"2024-043AR","EPOCH":"2026-03-09T22:40:29.479296","MEAN_MOTION":15.26694159,"ECCENTRICITY":0.00102608,"INCLINATION":97.5446,"RA_OF_ASC_NODE":204.7052,"ARG_OF_PERICENTER":220.7435,"MEAN_ANOMALY":139.3037,"EPHEMERIS_TYPE":0,"CLASSIFICATION_TYPE":"U","NORAD_CAT_ID":59137,"ELEMENT_SET_NO":999,"REV_AT_EPOCH":11187,"BSTAR":0.00024406819,"MEAN_MOTION_DOT":6.341e-5,"MEAN_MOTION_DDOT":0},{"OBJECT_NAME":"STARLINK-31788","OBJECT_ID":"2024-112T","EPOCH":"2026-03-09T06:59:01.324320","MEAN_MOTION":15.30191134,"ECCENTRICITY":0.00013298,"INCLINATION":53.1602,"RA_OF_ASC_NODE":79.9803,"ARG_OF_PERICENTER":79.9603,"MEAN_ANOMALY":280.1547,"EPHEMERIS_TYPE":0,"CLASSIFICATION_TYPE":"U","NORAD_CAT_ID":60055,"ELEMENT_SET_NO":999,"REV_AT_EPOCH":9853,"BSTAR":1.102446e-5,"MEAN_MOTION_DOT":-3.3e-7,"MEAN_MOTION_DDOT":0}]
